OBJECT_NAME,OBJECT_ID,EPOCH,MEAN_MOTION,ECCENTRICITY,INCLINATION,RA_OF_ASC_NODE,ARG_OF_PERICENTER,MEAN_ANOMALY,EPHEMERIS_TYPE,CLASSIFICATION_TYPE,NORAD_CAT_ID,ELEMENT_SET_NO,REV_AT_EPOCH,BSTAR,MEAN_MOTION_DOT,MEAN_MOTION_DDOT
ONEWEB-0698,2024-188L,2026-07-12T23:46:58.588032,13.11415892,.0002397,87.8878,15.9415,120.0008,240.1358,0,U,61604,999,8785,-.13787E-2,-.476E-5,0
ONEWEB-0699,2024-188M,2026-07-12T22:44:43.452960,13.10370228,.0002407,87.8808,31.1313,100.2229,259.9170,0,U,61605,999,8668,-.78429E-3,-.261E-5,0
ONEWEB-0700,2024-188N,2026-07-12T22:47:08.498688,13.10368964,.0002406,87.8834,31.0453,97.5509,262.5892,0,U,61606,999,8667,-.10373E-2,-.349E-5,0
ONEWEB-0701,2024-188P,2026-07-12T23:11:35.690784,13.10374172,.0002504,87.8820,31.1290,100.7149,259.4260,0,U,61607,999,8668,-.18083E-2,-.619E-5,0
ONEWEB-0702,2024-188Q,2026-07-12T23:03:03.186720,13.11415647,.0002859,87.8897,15.8581,95.9734,264.1720,0,U,61608,999,8786,.14978E-2,.544E-5,0
ONEWEB-0704,2024-188R,2026-07-12T22:54:28.616832,13.10370224,.0002842,87.8821,31.1212,91.8148,268.3305,0,U,61609,999,8666,-.15628E-2,-.533E-5,0
ONEWEB-0705,2024-188S,2026-07-12T23:01:49.152288,13.10372214,.000273,87.8823,31.1262,75.4102,284.7328,0,U,61610,999,7883,-.18006E-2,-.616E-5,0
ONEWEB-0706,2024-188T,2026-07-12T22:39:50.277024,13.10369011,.0002436,87.8821,31.1335,87.8326,272.3080,0,U,61611,999,8675,-.46762E-3,-.151E-5,0
ONEWEB-0707,2024-188U,2026-07-12T22:49:34.883616,13.10369200,.0002388,87.8824,31.1269,88.1171,272.0230,0,U,61612,999,8669,-.1193E-2,-.404E-5,0
ONEWEB-0708,2024-188V,2026-07-12T14:06:41.516064,13.10374173,.0002096,87.8821,31.2155,71.8523,288.2832,0,U,61613,999,8662,-.96169E-3,-.323E-5,0
