ONEWEB-0698             
1 61604U 24188L   26193.99095589 -.00000476  00000+0 -13787-2 0  9991
2 61604  87.8878  15.9415 0002397 120.0008 240.1358 13.11415892 87858
ONEWEB-0699             
1 61605U 24188M   26193.94772516 -.00000261  00000+0 -78429-3 0  9996
2 61605  87.8808  31.1313 0002406 100.2229 259.9170 13.10370228 86687
ONEWEB-0700             
1 61606U 24188N   26193.94940393 -.00000349  00000+0 -10373-2 0  9997
2 61606  87.8834  31.0453 0002405  97.5509 262.5892 13.10368964 86673
ONEWEB-0701             
1 61607U 24188P   26193.96638532 -.00000619  00000+0 -18083-2 0  9995
2 61607  87.8820  31.1290 0002503 100.7149 259.4260 13.10374172 86688
ONEWEB-0702             
1 61608U 24188Q   26193.96045356  .00000544  00000+0  14978-2 0  9996
2 61608  87.8897  15.8581 0002859  95.9734 264.1720 13.11415647 87863
ONEWEB-0704             
1 61609U 24188R   26193.95449789 -.00000533  00000+0 -15628-2 0  9997
2 61609  87.8821  31.1212 0002841  91.8148 268.3305 13.10370224 86660
ONEWEB-0705             
1 61610U 24188S   26193.95959667 -.00000616  00000+0 -18006-2 0  9995
2 61610  87.8823  31.1262 0002730  75.4102 284.7328 13.10372214 78832
ONEWEB-0706             
1 61611U 24188T   26193.94433192 -.00000151  00000+0 -46762-3 0  9990
2 61611  87.8821  31.1335 0002436  87.8326 272.3080 13.10369012 86750
ONEWEB-0707             
1 61612U 24188U   26193.95109820 -.00000404  00000+0 -11930-2 0  9999
2 61612  87.8824  31.1269 0002387  88.1171 272.0230 13.10369200 86693
ONEWEB-0708             
1 61613U 24188V   26193.58798051 -.00000323  00000+0 -96169-3 0  9997
2 61613  87.8821  31.2155 0002096  71.8523 288.2832 13.10374173 86628
